STARLINK-31256          
1 59161U 24044K   26068.78465645  .00000333  00000+0  21629-4 0  9995
2 59161  43.0000 106.1864 0001030 276.2359  83.8375 15.27568251113613
PHISAT 2                
1 60470U 24149C   26068.78834181  .00008925  00000+0  31421-3 0  9996
2 60470  97.3806 148.6498 0001175 168.6230 191.5037 15.29548631 86792
